{"type": "FeatureCollection", "features": [ {"type": "Feature", "properties": {"norad_id": 66469, "name": "STARLINK-35451", "group": "last-30-days", "lat": 42.14467082126716, "lon": -159.61794027864923, "alt_km": 409.17217285725656, "timestamp": "2025-12-08T08:58:59.556269+00:00", "meta": {"OBJECT_NAME": "STARLINK-35451", "OBJECT_ID": "2025-262P", "EPOCH": "2025-12-07T22:00:03.000096", "MEAN_MOTION": 15.50512495, "ECCENTRICITY": 0.00014171, "INCLINATION": 43.0006, "RA_OF_ASC_NODE": 99.2638, "ARG_OF_PERICENTER": 285.405, "MEAN_ANOMALY": 137.3699, "EPHEMERIS_TYPE": 0, "CLASSIFICATION_TYPE": "U", "NORAD_CAT_ID": 66469, "ELEMENT_SET_NO": 999, "REV_AT_EPOCH": 486, "BSTAR": 0.0019081038, "MEAN_MOTION_DOT": 0.00112958, "MEAN_MOTION_DDOT": 0}, "tle": {"line1": "1 66469U 25262P   25341.91670139  .00112958  00000+0  19081-2 0  9995", "line2": "2 66469  43.0006  99.2638 0001417 285.4050 137.3699 15.50512495  4863"}}, "geometry": {"type": "Point", "coordinates": [-159.61794027864923, 42.14467082126716]}}, {"type": "Feature", "properties": {"norad_id": 66470, "name": "STARLINK-35655", "group": "last-30-days", "lat": 42.6505999400551, "lon": -164.71312086688351, "alt_km": 409.5655147393736, "timestamp": "2025-12-08T08:58:59.556280+00:00", "meta": {"OBJECT_NAME": "STARLINK-35655", "OBJECT_ID": "2025-262Q", "EPOCH": "2025-12-07T22:00:03.000096", "MEAN_MOTION": 15.50600306, "ECCENTRICITY": 0.00016915, "INCLINATION": 43.0008, "RA_OF_ASC_NODE": 99.2747, "ARG_OF_PERICENTER": 268.0468, "MEAN_ANOMALY": 150.9354, "EPHEMERIS_TYPE": 0, "CLASSIFICATION_TYPE": "U", "NORAD_CAT_ID": 66470, "ELEMENT_SET_NO": 999, "REV_AT_EPOCH": 486, "BSTAR": -0.0014101948, "MEAN_MOTION_DOT": -0.00082271, "MEAN_MOTION_DDOT": 0}, "tle": {"line1": "1 66470U 25262Q   25341.91670139 -.00082271  00000+0 -14102-2 0  9992", "line2": "2 66470  43.0008  99.2747 0001691 268.0468 150.9354 15.50600306  4860"}}, "geometry": {"type": "Point", "coordinates": [-164.71312086688351, 42.6505999400551]}}, {"type": "Feature", "properties": {"norad_id": 66471, "name": "STARLINK-35569", "group": "last-30-days", "lat": 42.42496268961191, "lon": -162.14786524381094, "alt_km": 409.4271152602205, "timestamp": "2025-12-08T08:58:59.556290+00:00", "meta": {"OBJECT_NAME": "STARLINK-35569", "OBJECT_ID": "2025-262R", "EPOCH": "2025-12-07T22:00:03.000096", "MEAN_MOTION": 15.50686101, "ECCENTRICITY": 0.00015081, "INCLINATION": 43.0005, "RA_OF_ASC_NODE": 99.2687, "ARG_OF_PERICENTER": 271.304, "MEAN_ANOMALY": 149.4961, "EPHEMERIS_TYPE": 0, "CLASSIFICATION_TYPE": "U", "NORAD_CAT_ID": 66471, "ELEMENT_SET_NO": 999, "REV_AT_EPOCH": 486, "BSTAR": -0.0026421454, "MEAN_MOTION_DOT": -0.00152938, "MEAN_MOTION_DDOT": 0}, "tle": {"line1": "1 66471U 25262R   25341.91670139 -.00152938  00000+0 -26421-2 0  9998", "line2": "2 66471  43.0005  99.2687 0001508 271.3040 149.4961 15.50686101  4865"}}, "geometry": {"type": "Point", "coordinates": [-162.14786524381094, 42.42496268961191]}}, {"type": "Feature", "properties": {"norad_id": 66472, "name": "STARLINK-35567", "group": "last-30-days", "lat": 41.79855701928318, "lon": -157.04091194667055, "alt_km": 409.70395984409515, "timestamp": "2025-12-08T08:58:59.556300+00:00", "meta": {"OBJECT_NAME": "STARLINK-35567", "OBJECT_ID": "2025-262S", "EPOCH": "2025-12-07T22:00:03.000096", "MEAN_MOTION": 15.50600337, "ECCENTRICITY": 0.00017296, "INCLINATION": 43.0005, "RA_OF_ASC_NODE": 99.2596, "ARG_OF_PERICENTER": 268.8763, "MEAN_ANOMALY": 155.8525, "EPHEMERIS_TYPE": 0, "CLASSIFICATION_TYPE": "U", "NORAD_CAT_ID": 66472, "ELEMENT_SET_NO": 999, "REV_AT_EPOCH": 486, "BSTAR": -0.0013867756, "MEAN_MOTION_DOT": -0.00080925, "MEAN_MOTION_DDOT": 0}, "tle": {"line1": "1 66472U 25262S   25341.91670139 -.00080925  00000+0 -13868-2 0  9996", "line2": "2 66472  43.0005  99.2596 0001729 268.8763 155.8525 15.50600337  4867"}}, "geometry": {"type": "Point", "coordinates": [-157.04091194667055, 41.79855701928318]}}, {"type": "Feature", "properties": {"norad_id": 66473, "name": "STARLINK-35568", "group": "last-30-days", "lat": 41.40193868505794, "lon": -154.53247507483542, "alt_km": 409.7145605293608, "timestamp": "2025-12-08T08:58:59.556310+00:00", "meta": {"OBJECT_NAME": "STARLINK-35568", "OBJECT_ID": "2025-262T", "EPOCH": "2025-12-07T22:00:03.000096", "MEAN_MOTION": 15.5059958, "ECCENTRICITY": 0.00016792, "INCLINATION": 43.0006, "RA_OF_ASC_NODE": 99.2546, "ARG_OF_PERICENTER": 269.8675, "MEAN_ANOMALY": 156.7767, "EPHEMERIS_TYPE": 0, "CLASSIFICATION_TYPE": "U", "NORAD_CAT_ID": 66473, "ELEMENT_SET_NO": 999, "REV_AT_EPOCH": 486, "BSTAR": -0.0012895744, "MEAN_MOTION_DOT": -0.00075328, "MEAN_MOTION_DDOT": 0}, "tle": {"line1": "1 66473U 25262T   25341.91670139 -.00075328  00000+0 -12896-2 0  9998", "line2": "2 66473  43.0006  99.2546 0001679 269.8675 156.7767 15.50599580  4866"}}, "geometry": {"type": "Point", "coordinates": [-154.53247507483542, 41.40193868505794]}}, {"type": "Feature", "properties": {"norad_id": 66474, "name": "STARLINK-35620", "group": "last-30-days", "lat": 40.950706148366294, "lon": -152.05453350606263, "alt_km": 409.7096540555349, "timestamp": "2025-12-08T08:58:59.556320+00:00", "meta": {"OBJECT_NAME": "STARLINK-35620", "OBJECT_ID": "2025-262U", "EPOCH": "2025-12-07T22:00:03.000096", "MEAN_MOTION": 15.50596913, "ECCENTRICITY": 0.00016076, "INCLINATION": 43.0006, "RA_OF_ASC_NODE": 99.249, "ARG_OF_PERICENTER": 266.6625, "MEAN_ANOMALY": 161.9049, "EPHEMERIS_TYPE": 0, "CLASSIFICATION_TYPE": "U", "NORAD_CAT_ID": 66474, "ELEMENT_SET_NO": 999, "REV_AT_EPOCH": 486, "BSTAR": -0.0012220294, "MEAN_MOTION_DOT": -0.00071428, "MEAN_MOTION_DDOT": 0}, "tle": {"line1": "1 66474U 25262U   25341.91670139 -.00071428  00000+0 -12220-2 0  9997", "line2": "2 66474  43.0006  99.2490 0001607 266.6625 161.9049 15.50596913  4864"}}, "geometry": {"type": "Point", "coordinates": [-152.05453350606263, 40.950706148366294]}}, {"type": "Feature", "properties": {"norad_id": 66475, "name": "STARLINK-35538", "group": "last-30-days", "lat": 40.44890727655439, "lon": -149.61919406532067, "alt_km": 409.8212936265618, "timestamp": "2025-12-08T08:58:59.556330+00:00", "meta": {"OBJECT_NAME": "STARLINK-35538", "OBJECT_ID": "2025-262V", "EPOCH": "2025-12-07T22:00:03.000096", "MEAN_MOTION": 15.50605066, "ECCENTRICITY": 0.00016342, "INCLINATION": 43.0006, "RA_OF_ASC_NODE": 99.2455, "ARG_OF_PERICENTER": 268.1151, "MEAN_ANOMALY": 162.364, "EPHEMERIS_TYPE": 0, "CLASSIFICATION_TYPE": "U", "NORAD_CAT_ID": 66475, "ELEMENT_SET_NO": 999, "REV_AT_EPOCH": 486, "BSTAR": -0.0014862575, "MEAN_MOTION_DOT": -0.00086656, "MEAN_MOTION_DDOT": 0}, "tle": {"line1": "1 66475U 25262V   25341.91670139 -.00086656  00000+0 -14863-2 0  9992", "line2": "2 66475  43.0006  99.2455 0001634 268.1151 162.3640 15.50605066  4869"}}, "geometry": {"type": "Point", "coordinates": [-149.61919406532067, 40.44890727655439]}}, {"type": "Feature", "properties": {"norad_id": 66476, "name": "STARLINK-35372", "group": "last-30-days", "lat": 39.895844567709936, "lon": -147.22029520508408, "alt_km": 409.90636997303955, "timestamp": "2025-12-08T08:58:59.556340+00:00", "meta": {"OBJECT_NAME": "STARLINK-35372", "OBJECT_ID": "2025-262W", "EPOCH": "2025-12-07T22:00:03.000096", "MEAN_MOTION": 15.50589501, "ECCENTRICITY": 0.00016828, "INCLINATION": 43.0006, "RA_OF_ASC_NODE": 99.2402, "ARG_OF_PERICENTER": 270.7736, "MEAN_ANOMALY": 161.6245, "EPHEMERIS_TYPE": 0, "CLASSIFICATION_TYPE": "U", "NORAD_CAT_ID": 66476, "ELEMENT_SET_NO": 999, "REV_AT_EPOCH": 475, "BSTAR": -0.00097918382, "MEAN_MOTION_DOT": -0.00057389, "MEAN_MOTION_DDOT": 0}, "tle": {"line1": "1 66476U 25262W   25341.91670139 -.00057389  00000+0 -97918-3 0  9997", "line2": "2 66476  43.0006  99.2402 0001682 270.7736 161.6245 15.50589501  4759"}}, "geometry": {"type": "Point", "coordinates": [-147.22029520508408, 39.895844567709936]}}, {"type": "Feature", "properties": {"norad_id": 66477, "name": "STARLINK-35354", "group": "last-30-days", "lat": 38.681894545979475, "lon": -142.6715349440317, "alt_km": 409.663803109891, "timestamp": "2025-12-08T08:58:59.556355+00:00", "meta": {"OBJECT_NAME": "STARLINK-35354", "OBJECT_ID": "2025-262X", "EPOCH": "2025-12-07T22:00:03.000096", "MEAN_MOTION": 15.50425146, "ECCENTRICITY": 0.0001183, "INCLINATION": 43.0005, "RA_OF_ASC_NODE": 99.2291, "ARG_OF_PERICENTER": 261.1225, "MEAN_ANOMALY": 175.1329, "EPHEMERIS_TYPE": 0, "CLASSIFICATION_TYPE": "U", "NORAD_CAT_ID": 66477, "ELEMENT_SET_NO": 999, "REV_AT_EPOCH": 486, "BSTAR": 0.0022300711, "MEAN_MOTION_DOT": 0.00131989, "MEAN_MOTION_DDOT": 0}, "tle": {"line1": "1 66477U 25262X   25341.91670139  .00131989  00000+0  22301-2 0  9998", "line2": "2 66477  43.0005  99.2291 0001183 261.1225 175.1329 15.50425146  4867"}}, "geometry": {"type": "Point", "coordinates": [-142.6715349440317, 38.681894545979475]}}, {"type": "Feature", "properties": {"norad_id": 66478, "name": "STARLINK-35283", "group": "last-30-days", "lat": 37.95096897942696, "lon": -140.27002342361294, "alt_km": 410.1048707845375, "timestamp": "2025-12-08T08:58:59.556365+00:00", "meta": {"OBJECT_NAME": "STARLINK-35283", "OBJECT_ID": "2025-262Y", "EPOCH": "2025-12-07T22:00:03.000096", "MEAN_MOTION": 15.5059314, "ECCENTRICITY": 0.00015743, "INCLINATION": 43.0006, "RA_OF_ASC_NODE": 99.2245, "ARG_OF_PERICENTER": 268.5162, "MEAN_ANOMALY": 169.6335, "EPHEMERIS_TYPE": 0, "CLASSIFICATION_TYPE": "U", "NORAD_CAT_ID": 66478, "ELEMENT_SET_NO": 999, "REV_AT_EPOCH": 486, "BSTAR": -0.0011416658, "MEAN_MOTION_DOT": -0.00066783, "MEAN_MOTION_DDOT": 0}, "tle": {"line1": "1 66478U 25262Y   25341.91670139 -.00066783  00000+0 -11417-2 0  9996", "line2": "2 66478  43.0006  99.2245 0001574 268.5162 169.6335 15.50593140  4868"}}, "geometry": {"type": "Point", "coordinates": [-140.27002342361294, 37.95096897942696]}}]}